OBJECT_NAME,OBJECT_ID,EPOCH,MEAN_MOTION,ECCENTRICITY,INCLINATION,RA_OF_ASC_NODE,ARG_OF_PERICENTER,MEAN_ANOMALY,EPHEMERIS_TYPE,CLASSIFICATION_TYPE,NORAD_CAT_ID,ELEMENT_SET_NO,REV_AT_EPOCH,BSTAR,MEAN_MOTION_DOT,MEAN_MOTION_DDOT
GLOBALSTAR M069,2007-020C,2026-07-17T23:40:40.472256,12.23472307,.0001573,52.0009,164.9508,216.3139,186.7482,0,U,31573,999,88257,.317489E-4,-.89E-6,0
GLOBALSTAR M072,2007-020D,2026-07-17T19:46:19.203168,11.91658844,.0001651,51.9949,18.6823,40.5139,333.6053,0,U,31574,999,87863,.61389536E-4,-.8E-6,0
GLOBALSTAR M066,2007-048C,2026-07-17T19:22:08.343264,12.30389774,.00055737,51.9610,330.0128,106.9042,58.4450,0,U,32265,999,86399,.45868787E-3,-.4E-6,0
GLOBALSTAR M079,2010-054A,2026-07-17T23:04:56.757792,12.62266439,.00011313,52.0055,14.9875,82.5140,82.7742,0,U,37188,999,72643,-.11032479E-4,-.106E-5,0
GLOBALSTAR M074,2010-054B,2026-07-17T21:48:49.500864,12.62262051,.00008672,52.0034,14.4093,96.7229,68.1707,0,U,37189,999,72703,-.19609555E-4,-.107E-5,0
GLOBALSTAR M076,2010-054C,2026-07-17T22:26:28.086720,12.62262524,.0001103,52.0048,14.5354,96.1656,67.4837,0,U,37190,999,72675,.8485578E-4,-.89E-6,0
GLOBALSTAR M077,2010-054D,2026-07-17T22:45:24.912000,11.67547281,.0002217,51.9959,101.2193,230.2944,213.6603,0,U,37191,999,72473,-.46558489E-3,-.103E-5,0
GLOBALSTAR M075,2010-054E,2026-07-17T22:26:46.757760,12.62267880,.0000779,51.9956,56.5717,68.7949,36.4126,0,U,37192,999,72582,.51786227E-4,-.94E-6,0
GLOBALSTAR M073,2010-054F,2026-07-17T18:57:59.793696,12.62266951,.00010306,52.0081,331.1378,100.3538,63.9969,0,U,37193,999,72779,.57027191E-4,-.94E-6,0
GLOBALSTAR M083,2011-033A,2026-07-17T23:06:44.380224,12.62264286,.00007207,51.9860,278.7998,108.8964,62.0473,0,U,37739,999,69683,.13750947E-3,-.79E-6,0
GLOBALSTAR M088,2011-033B,2026-07-17T23:39:58.012704,12.62269485,.00000847,52.0189,185.2297,49.6726,344.9111,0,U,37740,999,69238,-.70608965E-4,-.116E-5,0
GLOBALSTAR M091,2011-033C,2026-07-17T22:06:41.888160,12.62264248,.00004888,51.9983,148.3465,29.0765,11.6026,0,U,37741,999,69316,.615365E-6,-.104E-5,0
GLOBALSTAR M085,2011-033D,2026-07-17T22:00:22.938624,12.62264382,.00008344,52.0126,99.6792,45.5716,35.1749,0,U,37742,999,69367,.1050741E-3,-.85E-6,0
GLOBALSTAR M081,2011-033E,2026-07-17T22:38:29.277888,12.62265296,.00007221,51.9957,101.9996,58.2873,22.6300,0,U,37743,999,69382,.70724587E-4,-.91E-6,0
GLOBALSTAR M089,2011-033F,2026-07-17T21:48:07.208064,12.62267600,.00007098,51.9939,56.2590,91.3868,11.6355,0,U,37744,999,69466,.44727561E-4,-.96E-6,0
GLOBALSTAR M084,2011-080A,2026-07-17T16:44:37.459392,12.62263600,.00007737,52.0016,284.3999,133.2621,31.3380,0,U,38040,999,67261,.13765029E-3,-.79E-6,0
GLOBALSTAR M080,2011-080B,2026-07-17T23:41:52.859904,12.62257585,.00002942,52.0066,285.2470,77.1310,94.5763,0,U,38041,999,67277,.14100488E-3,-.79E-6,0
GLOBALSTAR M082,2011-080C,2026-07-17T12:32:15.510336,12.62264325,.0000194,52.0060,242.1663,76.2364,71.3480,0,U,38042,999,67342,.80848E-4,-.89E-6,0
GLOBALSTAR M092,2011-080D,2026-07-17T19:35:50.099712,12.62267883,.00007609,52.0105,331.6680,106.5467,57.7424,0,U,38043,999,67191,.12038063E-3,-.82E-6,0
GLOBALSTAR M090,2011-080E,2026-07-17T03:04:27.518592,12.62269629,.00004137,52.0103,237.3317,89.1139,304.6303,0,U,38044,999,67349,.13632176E-3,-.79E-6,0
GLOBALSTAR M086,2011-080F,2026-07-17T19:30:43.632864,12.62287873,.00014679,51.9873,235.1255,115.5282,55.9605,0,U,38045,999,67352,.16478581E-4,-.101E-5,0
GLOBALSTAR M097,2013-005A,2026-07-17T21:16:15.806784,12.62271305,.00005001,52.0028,149.8839,43.0531,317.0375,0,U,39072,999,62078,-.57589785E-4,-.114E-5,0
GLOBALSTAR M093,2013-005B,2026-07-17T20:37:44.197248,12.62266346,.00007222,52.0095,143.3242,48.8066,311.2863,0,U,39073,999,62073,.2203617E-4,-.1E-5,0
GLOBALSTAR M094,2013-005C,2026-07-17T18:43:30.387648,12.62264193,.00010216,51.9969,57.6527,66.6173,293.4801,0,U,39074,999,62233,.5705578E-4,-.94E-6,0
GLOBALSTAR M096,2013-005D,2026-07-17T20:57:00.486720,12.62265732,.00007964,52.0073,106.1957,47.6461,312.4473,0,U,39075,999,62126,.90253673E-4,-.88E-6,0
GLOBALSTAR M078,2013-005E,2026-07-17T22:12:20.955456,12.62260116,.00009015,51.9845,190.0044,345.8599,14.2242,0,U,39076,999,61989,-.10262088E-3,-.122E-5,0
GLOBALSTAR M095,2013-005F,2026-07-17T22:50:45.589920,12.62264099,.00005282,52.0053,187.5703,17.8230,342.2655,0,U,39077,999,61975,-.10614424E-3,-.123E-5,0
GLOBALSTAR M087,2022-064A,2026-07-17T19:21:34.456320,12.62269460,.00008982,52.0016,329.2338,88.1090,271.9879,0,U,52888,999,19500,.12787718E-3,-.81E-6,0
